STARLINK-4719           
1 53774U 22111B   26068.86325966  .00001012  00000+0  81658-4 0  9995
2 53774  53.2162 283.2276 0001282  98.5226 261.5912 15.08845552193734
STARLINK-6085           
1 57115U 23090Q   26068.53746065  .00027564  00000+0  15302-2 0  9997
2 57115  42.9983 264.1938 0019382 205.4773 154.5119 15.13089153150525
